[{"OBJECT_NAME":"FLOCK 4G-21","OBJECT_ID":"2025-009AU","EPOCH":"2026-03-09T04:40:37.351200","MEAN_MOTION":15.28381075,"ECCENTRICITY":4.655e-5,"INCLINATION":97.4032,"RA_OF_ASC_NODE":151.1274,"ARG_OF_PERICENTER":329.5782,"MEAN_ANOMALY":30.5431,"EPHEMERIS_TYPE":0,"CLASSIFICATION_TYPE":"U","NORAD_CAT_ID":62651,"ELEMENT_SET_NO":999,"REV_AT_EPOCH":6367,"BSTAR":0.00049618643,"MEAN_MOTION_DOT":0.00013648,"MEAN_MOTION_DDOT":0},{"OBJECT_NAME":"STARLINK-35355","OBJECT_ID":"2025-259AC","EPOCH":"2026-03-09T22:16:21.471456","MEAN_MOTION":15.27610332,"ECCENTRICITY":0.00015727,"INCLINATION":43.0007,"RA_OF_ASC_NODE":273.3462,"ARG_OF_PERICENTER":281.8072,"MEAN_ANOMALY":78.2603,"EPHEMERIS_TYPE":0,"CLASSIFICATION_TYPE":"U","NORAD_CAT_ID":66448,"ELEMENT_SET_NO":999,"REV_AT_EPOCH":1952,"BSTAR":0.0010805203,"MEAN_MOTION_DOT":0.00029619,"MEAN_MOTION_DDOT":0}]
